[{"OBJECT_NAME":"ONEWEB-0035","OBJECT_ID":"2020-008N","EPOCH":"2025-09-23T05:08:17.219616","MEAN_MOTION":13.1036972,"ECCENTRICITY":0.00015817,"INCLINATION":87.8732,"RA_OF_ASC_NODE":89.5247,"ARG_OF_PERICENTER":92.7029,"MEAN_ANOMALY":267.428,"EPHEMERIS_TYPE":0,"CLASSIFICATION_TYPE":"U","NORAD_CAT_ID":45143,"ELEMENT_SET_NO":999,"REV_AT_EPOCH":27297,"BSTAR":-6.802809e-6,"MEAN_MOTION_DOT":1.0e-7,"MEAN_MOTION_DDOT":0},{"OBJECT_NAME":"ONEWEB-0036","OBJECT_ID":"2020-008P","EPOCH":"2025-09-23T01:14:02.981760","MEAN_MOTION":13.10370119,"ECCENTRICITY":0.00017926,"INCLINATION":87.8751,"RA_OF_ASC_NODE":89.5067,"ARG_OF_PERICENTER":79.1457,"MEAN_ANOMALY":280.9872,"EPHEMERIS_TYPE":0,"CLASSIFICATION_TYPE":"U","NORAD_CAT_ID":45144,"ELEMENT_SET_NO":999,"REV_AT_EPOCH":27338,"BSTAR":0.0011704526,"MEAN_MOTION_DOT":4.21e-6,"MEAN_MOTION_DDOT":0},{"OBJECT_NAME":"ONEWEB-0038","OBJECT_ID":"2020-008Q","EPOCH":"2025-09-22T23:27:44.057664","MEAN_MOTION":13.11420202,"ECCENTRICITY":1.577e-5,"INCLINATION":87.8791,"RA_OF_ASC_NODE":74.288,"ARG_OF_PERICENTER":309.0128,"MEAN_ANOMALY":51.0986,"EPHEMERIS_TYPE":0,"CLASSIFICATION_TYPE":"U","NORAD_CAT_ID":45145,"ELEMENT_SET_NO":999,"REV_AT_EPOCH":27530,"BSTAR":-0.00022202356,"MEAN_MOTION_DOT":-6.6e-7,"MEAN_MOTION_DDOT":0},{"OBJECT_NAME":"ONEWEB-0039","OBJECT_ID":"2020-008R","EPOCH":"2025-09-23T00:48:54.431712","MEAN_MOTION":13.10413495,"ECCENTRICITY":0.00018628,"INCLINATION":87.8753,"RA_OF_ASC_NODE":89.5277,"ARG_OF_PERICENTER":75.1222,"MEAN_ANOMALY":285.0112,"EPHEMERIS_TYPE":0,"CLASSIFICATION_TYPE":"U","NORAD_CAT_ID":45146,"ELEMENT_SET_NO":999,"REV_AT_EPOCH":27317,"BSTAR":0.00055752426,"MEAN_MOTION_DOT":2.07e-6,"MEAN_MOTION_DDOT":0},{"OBJECT_NAME":"ONEWEB-0040","OBJECT_ID":"2020-008S","EPOCH":"2025-09-23T00:39:22.615776","MEAN_MOTION":13.10378876,"ECCENTRICITY":0.00016249,"INCLINATION":87.8743,"RA_OF_ASC_NODE":89.5589,"ARG_OF_PERICENTER":85.6285,"MEAN_ANOMALY":274.5028,"EPHEMERIS_TYPE":0,"CLASSIFICATION_TYPE":"U","NORAD_CAT_ID":45147,"ELEMENT_SET_NO":999,"REV_AT_EPOCH":27287,"BSTAR":0.00099378731,"MEAN_MOTION_DOT":3.6e-6,"MEAN_MOTION_DDOT":0},{"OBJECT_NAME":"ONEWEB-0043","OBJECT_ID":"2020-008U","EPOCH":"2025-09-23T00:41:47.044608","MEAN_MOTION":13.10375471,"ECCENTRICITY":0.00018655,"INCLINATION":87.8742,"RA_OF_ASC_NODE":89.541,"ARG_OF_PERICENTER":73.7716,"MEAN_ANOMALY":286.3617,"EPHEMERIS_TYPE":0,"CLASSIFICATION_TYPE":"U","NORAD_CAT_ID":45149,"ELEMENT_SET_NO":999,"REV_AT_EPOCH":27319,"BSTAR":0.0012429792,"MEAN_MOTION_DOT":4.47e-6,"MEAN_MOTION_DDOT":0},{"OBJECT_NAME":"ONEWEB-0044","OBJECT_ID":"2020-008V","EPOCH":"2025-09-23T01:22:24.434400","MEAN_MOTION":13.10369833,"ECCENTRICITY":0.00017366,"INCLINATION":87.8734,"RA_OF_ASC_NODE":89.5266,"ARG_OF_PERICENTER":79.636,"MEAN_ANOMALY":280.4963,"EPHEMERIS_TYPE":0,"CLASSIFICATION_TYPE":"U","NORAD_CAT_ID":45150,"ELEMENT_SET_NO":999,"REV_AT_EPOCH":27349,"BSTAR":0.0005514543,"MEAN_MOTION_DOT":2.05e-6,"MEAN_MOTION_DDOT":0},{"OBJECT_NAME":"ONEWEB-0045","OBJECT_ID":"2020-008W","EPOCH":"2025-09-22T23:20:12.596928","MEAN_MOTION":13.11418749,"ECCENTRICITY":0.00015025,"INCLINATION":87.8801,"RA_OF_ASC_NODE":74.2638,"ARG_OF_PERICENTER":88.6242,"MEAN_ANOMALY":271.5058,"EPHEMERIS_TYPE":0,"CLASSIFICATION_TYPE":"U","NORAD_CAT_ID":45151,"ELEMENT_SET_NO":999,"REV_AT_EPOCH":27538,"BSTAR":-0.00029532485,"MEAN_MOTION_DOT":-9.2e-7,"MEAN_MOTION_DDOT":0},{"OBJECT_NAME":"ONEWEB-0047","OBJECT_ID":"2020-008X","EPOCH":"2025-09-22T23:22:54.345504","MEAN_MOTION":13.10371966,"ECCENTRICITY":0.00016037,"INCLINATION":87.8736,"RA_OF_ASC_NODE":89.5531,"ARG_OF_PERICENTER":85.0533,"MEAN_ANOMALY":275.0778,"EPHEMERIS_TYPE":0,"CLASSIFICATION_TYPE":"U","NORAD_CAT_ID":45152,"ELEMENT_SET_NO":999,"REV_AT_EPOCH":27320,"BSTAR":0.0013754837,"MEAN_MOTION_DOT":4.93e-6,"MEAN_MOTION_DDOT":0},{"OBJECT_NAME":"ONEWEB-0048","OBJECT_ID":"2020-008Y","EPOCH":"2025-09-23T01:05:40.951968","MEAN_MOTION":13.10371017,"ECCENTRICITY":0.00016271,"INCLINATION":87.8739,"RA_OF_ASC_NODE":89.5643,"ARG_OF_PERICENTER":88.2271,"MEAN_ANOMALY":271.9042,"EPHEMERIS_TYPE":0,"CLASSIFICATION_TYPE":"U","NORAD_CAT_ID":45153,"ELEMENT_SET_NO":999,"REV_AT_EPOCH":27282,"BSTAR":0.0017504702,"MEAN_MOTION_DOT":6.24e-6,"MEAN_MOTION_DDOT":0},{"OBJECT_NAME":"ONEWEB-0049","OBJECT_ID":"2020-008Z","EPOCH":"2025-09-22T21:29:21.654528","MEAN_MOTION":13.10369595,"ECCENTRICITY":0.00021103,"INCLINATION":87.8737,"RA_OF_ASC_NODE":89.5858,"ARG_OF_PERICENTER":83.4974,"MEAN_ANOMALY":276.6393,"EPHEMERIS_TYPE":0,"CLASSIFICATION_TYPE":"U","NORAD_CAT_ID":45154,"ELEMENT_SET_NO":999,"REV_AT_EPOCH":27302,"BSTAR":0.001238304,"MEAN_MOTION_DOT":4.45e-6,"MEAN_MOTION_DDOT":0},{"OBJECT_NAME":"ONEWEB-0051","OBJECT_ID":"2020-008AA","EPOCH":"2025-09-22T23:17:43.689984","MEAN_MOTION":13.11416382,"ECCENTRICITY":0.00016443,"INCLINATION":87.8782,"RA_OF_ASC_NODE":74.3012,"ARG_OF_PERICENTER":92.9948,"MEAN_ANOMALY":267.1368,"EPHEMERIS_TYPE":0,"CLASSIFICATION_TYPE":"U","NORAD_CAT_ID":45155,"ELEMENT_SET_NO":999,"REV_AT_EPOCH":27606,"BSTAR":-0.00098523982,"MEAN_MOTION_DOT":-3.36e-6,"MEAN_MOTION_DDOT":0},{"OBJECT_NAME":"ONEWEB-0052","OBJECT_ID":"2020-008AB","EPOCH":"2025-09-23T01:02:06.464832","MEAN_MOTION":13.1037303,"ECCENTRICITY":0.00021652,"INCLINATION":87.875,"RA_OF_ASC_NODE":89.5083,"ARG_OF_PERICENTER":80.6847,"MEAN_ANOMALY":279.4525,"EPHEMERIS_TYPE":0,"CLASSIFICATION_TYPE":"U","NORAD_CAT_ID":45156,"ELEMENT_SET_NO":999,"REV_AT_EPOCH":27295,"BSTAR":0.0021622467,"MEAN_MOTION_DOT":7.68e-6,"MEAN_MOTION_DDOT":0},{"OBJECT_NAME":"ONEWEB-0053","OBJECT_ID":"2020-008AC","EPOCH":"2025-09-23T00:36:59.464800","MEAN_MOTION":13.10374947,"ECCENTRICITY":0.00014423,"INCLINATION":87.8743,"RA_OF_ASC_NODE":89.5647,"ARG_OF_PERICENTER":76.5142,"MEAN_ANOMALY":283.6146,"EPHEMERIS_TYPE":0,"CLASSIFICATION_TYPE":"U","NORAD_CAT_ID":45157,"ELEMENT_SET_NO":999,"REV_AT_EPOCH":27292,"BSTAR":0.00063661855,"MEAN_MOTION_DOT":2.35e-6,"MEAN_MOTION_DDOT":0},{"OBJECT_NAME":"ONEWEB-0054","OBJECT_ID":"2020-008AD","EPOCH":"2025-09-23T01:27:10.951488","MEAN_MOTION":13.10369185,"ECCENTRICITY":0.0001716,"INCLINATION":87.8731,"RA_OF_ASC_NODE":89.5308,"ARG_OF_PERICENTER":89.1385,"MEAN_ANOMALY":270.9938,"EPHEMERIS_TYPE":0,"CLASSIFICATION_TYPE":"U","NORAD_CAT_ID":45158,"ELEMENT_SET_NO":999,"REV_AT_EPOCH":27304,"BSTAR":-5.479298e-5,"MEAN_MOTION_DOT":-6.0e-8,"MEAN_MOTION_DDOT":0},{"OBJECT_NAME":"ONEWEB-0056","OBJECT_ID":"2020-008AE","EPOCH":"2025-09-23T00:59:42.842112","MEAN_MOTION":13.10373312,"ECCENTRICITY":0.00016644,"INCLINATION":87.8741,"RA_OF_ASC_NODE":89.5321,"ARG_OF_PERICENTER":86.3896,"MEAN_ANOMALY":273.7422,"EPHEMERIS_TYPE":0,"CLASSIFICATION_TYPE":"U","NORAD_CAT_ID":45159,"ELEMENT_SET_NO":999,"REV_AT_EPOCH":27319,"BSTAR":0.001941598,"MEAN_MOTION_DOT":6.9e-6,"MEAN_MOTION_DDOT":0},{"OBJECT_NAME":"ONEWEB-0057","OBJECT_ID":"2020-008AF","EPOCH":"2025-09-23T01:10:28.020288","MEAN_MOTION":13.10371046,"ECCENTRICITY":0.00017444,"INCLINATION":87.8735,"RA_OF_ASC_NODE":89.5443,"ARG_OF_PERICENTER":82.4982,"MEAN_ANOMALY":277.6344,"EPHEMERIS_TYPE":0,"CLASSIFICATION_TYPE":"U","NORAD_CAT_ID":45160,"ELEMENT_SET_NO":999,"REV_AT_EPOCH":27336,"BSTAR":0.0016577981,"MEAN_MOTION_DOT":5.91e-6,"MEAN_MOTION_DDOT":0}]
