ONEWEB-0035             
1 45143U 20008N   25266.21408819  .00000010  00000+0 -68028-5 0  9991
2 45143  87.8732  89.5247 0001581  92.7029 267.4280 13.10369720272971
ONEWEB-0036             
1 45144U 20008P   25266.05142340  .00000421  00000+0  11705-2 0  9990
2 45144  87.8751  89.5067 0001792  79.1457 280.9872 13.10370119273388
ONEWEB-0038             
1 45145U 20008Q   25265.97759326 -.00000066  00000+0 -22202-3 0  9991
2 45145  87.8791  74.2880 0000157 309.0128  51.0986 13.11420202275308
ONEWEB-0039             
1 45146U 20008R   25266.03396333  .00000207  00000+0  55752-3 0  9996
2 45146  87.8753  89.5277 0001862  75.1222 285.0112 13.10413495273174
ONEWEB-0040             
1 45147U 20008S   25266.02734509  .00000360  00000+0  99379-3 0  9990
2 45147  87.8743  89.5589 0001624  85.6285 274.5028 13.10378876272879
ONEWEB-0043             
1 45149U 20008U   25266.02901672  .00000447  00000+0  12430-2 0  9997
2 45149  87.8742  89.5410 0001865  73.7716 286.3617 13.10375471273196
ONEWEB-0044             
1 45150U 20008V   25266.05722725  .00000205  00000+0  55145-3 0  9995
2 45150  87.8734  89.5266 0001736  79.6360 280.4963 13.10369833273492
ONEWEB-0045             
1 45151U 20008W   25265.97236802 -.00000092  00000+0 -29532-3 0  9999
2 45151  87.8801  74.2638 0001502  88.6242 271.5058 13.11418749275380
ONEWEB-0047             
1 45152U 20008X   25265.97424011  .00000493  00000+0  13755-2 0  9993
2 45152  87.8736  89.5531 0001603  85.0533 275.0778 13.10371966273200
ONEWEB-0048             
1 45153U 20008Y   25266.04561287  .00000624  00000+0  17505-2 0  9993
2 45153  87.8739  89.5643 0001627  88.2271 271.9042 13.10371017272821
ONEWEB-0049             
1 45154U 20008Z   25265.89538952  .00000445  00000+0  12383-2 0  9999
2 45154  87.8737  89.5858 0002110  83.4974 276.6393 13.10369595273025
ONEWEB-0051             
1 45155U 20008AA  25265.97064456 -.00000336  00000+0 -98524-3 0  9995
2 45155  87.8782  74.3012 0001644  92.9948 267.1368 13.11416382276069
ONEWEB-0052             
1 45156U 20008AB  25266.04313038  .00000768  00000+0  21622-2 0  9999
2 45156  87.8750  89.5083 0002165  80.6847 279.4525 13.10373030272958
ONEWEB-0053             
1 45157U 20008AC  25266.02568825  .00000235  00000+0  63662-3 0  9994
2 45157  87.8743  89.5647 0001442  76.5142 283.6146 13.10374947272927
ONEWEB-0054             
1 45158U 20008AD  25266.06054342 -.00000006  00000+0 -54793-4 0  9997
2 45158  87.8731  89.5308 0001716  89.1385 270.9938 13.10369185273042
ONEWEB-0056             
1 45159U 20008AE  25266.04146808  .00000690  00000+0  19416-2 0  9993
2 45159  87.8741  89.5321 0001664  86.3896 273.7422 13.10373312273199
ONEWEB-0057             
1 45160U 20008AF  25266.04893542  .00000591  00000+0  16578-2 0  9995
2 45160  87.8735  89.5443 0001744  82.4982 277.6344 13.10371046273368
